# last update : 24.09.2023 15:13:21 UTC
JASON-3                 
1 41240U 16002A   23267.09110292 -.00000028  00000+0  14131-3 0  9997
2 41240  66.0427  46.0913 0007540 266.6241  93.3912 12.80931177359434

SARAL                   
1 39086U 13009A   23266.53293390  .00000237  00000+0  10417-3 0  9999
2 39086  98.5497  90.4079 0002175  26.7146 333.4149 14.32262340552769

SENTINEL-3A             
1 41335U 16011A   23267.10984577  .00000205  00000+0  10290-3 0  9997
2 41335  98.6286 332.7245 0001223 107.5265 252.6050 14.26741228395887

SENTINEL-3B             
1 43437U 18039A   23266.17108909  .00000235  00000+0  11526-3 0  9993
2 43437  98.6341 331.8705 0000830  79.0423 281.0851 14.26733302281813

HAIYANG-2B              
1 43655U 18081A   23267.04446071  .00000024  00000+0  66445-4 0  9991
2 43655  99.3422 274.3451 0001727  60.7048 299.4276 13.79301320247463

CFOSAT                  
1 43662U 18083A   23267.09146530  .00005796  00000+0  30112-3 0  9995
2 43662  97.3944 283.7865 0001696  39.9801 320.1557 15.16469484271427

CRYOSAT 2               
1 36508U 10013A   23266.60210793  .00000441  00000+0  10884-3 0  9996
2 36508  92.0289  36.1496 0005866 104.3334 255.8524 14.51898933713335

SENTINEL-6              
1 46984U 20086A   23266.58734658 -.00000057  00000+0  18176-4 0  9991
2 46984  66.0427  47.0747 0007864 268.0703  91.9411 12.80929809132557

